CYGFM07                 
1 41890U 16078G   26085.61950096  .00028735  00000+0  40206-3 0  9990
2 41890  34.9463  57.4712 0005573 146.5316 213.5761 15.55778564516117
CYGFM03                 
1 41891U 16078H   26085.33385688  .00026921  00000+0  37714-3 0  9994
2 41891  34.9416  61.3296 0004459 128.5434 231.5690 15.55761104516045
FENGYUN 3D              
1 43010U 17072A   26085.90274178  .00000223  00000+0  12715-3 0  9999
2 43010  99.0062  58.8711 0000669 320.7111  39.4016 14.19720435433315
NOAA 20 (JPSS-1)        
1 43013U 17073A   26085.81529797  .00000071  00000+0  54815-4 0  9992
2 43013  98.7710  26.0342 0001832 114.7399 245.3968 14.19540384432780
GOES 17                 
1 43226U 18022A   26085.58794713 -.00000198  00000+0  00000+0 0  9992
2 43226   0.7255  86.9801 0001600 232.3867 346.8199  1.00271356 29598
FENGYUN 2H              
1 43491U 18050A   26085.89851485 -.00000142  00000+0  00000+0 0  9990
2 43491   2.8180  80.0490 0001736 173.1839 333.6390  1.00270371 28617
METOP-C                 
1 43689U 18087A   26085.78485571  .00000092  00000+0  61762-4 0  9996
2 43689  98.6730 146.8647 0002024  76.2007 283.9395 14.21502451383122
GEO-KOMPSAT-2A          
1 43823U 18100A   26085.79412514 -.00000361  00000+0  00000+0 0  9993
2 43823   0.0447  21.0178 0001473  23.7546 193.6183  1.00272341 26805
METEOR-M2 2             
1 44387U 19038A   26085.91547334  .00000051  00000+0  42054-4 0  9998
2 44387  98.9115  72.0074 0000214 216.7013 143.4151 14.24340396349582
ARKTIKA-M 1             
1 47719U 21016A   26085.25005737 -.00000114  00000+0  00000+0 0  9993
2 47719  63.2198  69.5179 7253460 269.5591  15.1029  2.00616603 37125
FENGYUN 3E              
1 49008U 21062A   26085.89609417 -.00000208  00000+0 -77221-4 0  9991
2 49008  98.7524  90.2184 0001459   8.6491 351.4710 14.19895407244907
GOES 18                 
1 51850U 22021A   26085.73494816  .00000080  00000+0  00000+0 0  9995
2 51850   0.0440  32.1742 0000337  12.6045 266.9620  1.00271466  5765
NOAA 21 (JPSS-2)        
1 54234U 22150A   26085.84981324  .00000088  00000+0  62401-4 0  9990
2 54234  98.7572  25.9210 0002767  76.4858 283.6626 14.19556567174865
METEOSAT-12 (MTG-I1)    
1 54743U 22170C   26085.83335060 -.00000024  00000+0  00000+0 0  9999
2 54743   0.7289  25.0801 0001937 287.2829 171.5511  1.00272188 12154
TIANMU-1 03             
1 55973U 23039A   26085.85375074  .00017644  00000+0  37830-3 0  9991
2 55973  97.5199 256.7625 0003522  53.6258 306.5315 15.44801515168119
TIANMU-1 04             
1 55974U 23039B   26085.80777898  .00018130  00000+0  38302-3 0  9993
2 55974  97.5131 255.8707 0004076  47.8252 312.3342 15.45228820168119
TIANMU-1 05             
1 55975U 23039C   26085.83100558  .00016963  00000+0  36456-3 0  9990
2 55975  97.5178 256.3841 0003703  73.4602 286.7053 15.44740049168097
TIANMU-1 06             
1 55976U 23039D   26085.80728887  .00017156  00000+0  36233-3 0  9997
2 55976  97.5187 256.9156 0003917  67.3695 292.7967 15.45250629168119
FENGYUN 3G              
1 56232U 23055A   26085.88356450  .00029861  00000+0  47690-3 0  9997
2 56232  49.9934  50.4160 0004996   6.8991 353.2044 15.52871104167217
METEOR-M2 3             
1 57166U 23091A   26085.89141764 -.00000012  00000+0  13505-4 0  9992
2 57166  98.6177 142.5196 0004847  60.0449 300.1210 14.24039332142802
TIANMU-1 07             
1 57399U 23101A   26085.86026696  .00006695  00000+0  23867-3 0  9998
2 57399  97.2693 138.4241 0004656  99.9002 260.2764 15.29219699149064
TIANMU-1 08             
1 57400U 23101B   26085.76300744  .00000258  00000+0  11605-4 0  9996
2 57400  97.2683 138.1078 0005816  81.6822 278.5077 15.29307245149040
TIANMU-1 09             
1 57401U 23101C   26085.81170670  .00007293  00000+0  25958-3 0  9997
2 57401  97.2641 137.6183 0005125  99.0195 261.1626 15.29235420149059
TIANMU-1 10             
1 57402U 23101D   26085.84479889  .00007388  00000+0  26239-3 0  9993
2 57402  97.2720 138.6140 0006549  88.7689 271.4301 15.29297492149057
FENGYUN 3F              
1 57490U 23111A   26085.81125888  .00000061  00000+0  49191-4 0  9999
2 57490  98.6892 157.3360 0000933  79.1531 280.9750 14.19923337137177
ARKTIKA-M 2             
1 58584U 23198A   26082.52027795  .00000173  00000+0  00000+0 0  9997
2 58584  63.2220 163.8934 6881218 267.7008  18.8555  2.00606565 16600
TIANMU-1 11             
1 58645U 23205A   26085.85510303  .00005989  00000+0  23484-3 0  9990
2 58645  97.3530 108.7284 0007241 301.0782  58.9745 15.26102231124965
TIANMU-1 12             
1 58646U 23205B   26085.82275019  .00006205  00000+0  24380-3 0  9998
2 58646  97.3520 108.4710 0005362 280.3928  79.6706 15.26034450124941
TIANMU-1 13             
1 58647U 23205C   26085.85307603  .00006486  00000+0  25427-3 0  9991
2 58647  97.3546 108.7473 0005729 255.1587 104.9017 15.26086634124945
TIANMU-1 14             
1 58648U 23205D   26085.83792506  .00006275  00000+0  24627-3 0  9997
2 58648  97.3483 107.9857 0006424 261.6006  98.4504 15.26060965124941
TIANMU-1 19             
1 58660U 23208A   26085.86496690  .00009920  00000+0  34217-3 0  9998
2 58660  97.4396 201.8760 0004006 236.0611 124.0249 15.30181617124730
TIANMU-1 20             
1 58661U 23208B   26085.83597829  .00009400  00000+0  31265-3 0  9995
2 58661  97.4336 202.3978 0006006 250.9769 109.0822 15.31367422124813
TIANMU-1 21             
1 58662U 23208C   26085.87695488  .00012361  00000+0  38455-3 0  9998
2 58662  97.4392 204.7795 0006031 244.2677 115.7943 15.33438771124941
TIANMU-1 22             
1 58663U 23208D   26085.88704159  .00008809  00000+0  30807-3 0  9991
2 58663  97.4391 201.8975 0002367 266.4210  93.6760 15.29772571124749
TIANMU-1 15             
1 58700U 24004A   26085.83556211  .00005992  00000+0  23532-3 0  9994
2 58700  97.4682 272.0542 0005645 279.9966  80.0635 15.26072260123210
TIANMU-1 16             
1 58701U 24004B   26085.81865398  .00006432  00000+0  25214-3 0  9991
2 58701  97.4625 271.3484 0004088 284.7738  75.3047 15.26109150123219
TIANMU-1 17             
1 58702U 24004C   26085.86615925  .00007414  00000+0  28986-3 0  9996
2 58702  97.4656 271.8575 0003298 286.4944  73.5932 15.26145691123213
TIANMU-1 18             
1 58703U 24004D   26085.85195715  .00006910  00000+0  27088-3 0  9998
2 58703  97.4673 272.0574 0002685 286.1834  73.9109 15.26086464123211
INSAT-3DS               
1 58990U 24033A   26085.85739256 -.00000173  00000+0  00000+0 0  9999
2 58990   0.0097 146.8677 0002027 215.9029 212.2584  1.00271634 46241
METEOR-M2 4             
1 59051U 24039A   26085.88305341  .00000046  00000+0  40359-4 0  9995
2 59051  98.6934  46.2519 0008005  53.2975 306.8937 14.22419836107567
GOES 19                 
1 60133U 24119A   26085.53327161 -.00000264  00000+0  00000+0 0  9990
2 60133   0.0370  12.5264 0000725  21.3099 266.9101  1.00270444  6130
FENGYUN 3H              
1 65815U 25219A   26085.80734999  .00000086  00000+0  60786-4 0  9998
2 65815  98.6706  28.2058 0000901  59.1359 300.9906 14.19936944 25699
OSCAR 7 (AO-7)          
1 07530U 74089B   26085.49581058 -.00000029  00000+0  10647-3 0  9996
2 07530 101.9959  97.8669 0011867 289.3476 237.4556 12.53696671350150
PHASE 3B (AO-10)        
1 14129U 83058B   26084.35916296 -.00000351  00000+0  00000+0 0  9990
2 14129  25.9114 233.6020 6040998  92.4738 333.4977  2.05874335293766
UOSAT 2 (UO-11)         
1 14781U 84021B   26085.85926394  .00001716  00000+0  18105-3 0  9995
2 14781  97.7975  52.4057 0009163  95.0200 265.2064 14.90563870244867
LUSAT (LO-19)           
1 20442U 90005G   26085.50538916  .00000145  00000+0  68326-4 0  9992
2 20442  98.8923 105.0080 0012712  89.1237 271.1403 14.34094764890546
EYESAT A (AO-27)        
1 22825U 93061C   26085.41911846  .00000105  00000+0  56920-4 0  9994
2 22825  98.6950 152.8392 0008041 351.2165   8.8875 14.30918476695160
ITAMSAT (IO-26)         
1 22826U 93061D   26085.42312271  .00000113  00000+0  59749-4 0  9994
2 22826  98.6897 152.7522 0008228 333.4856  26.5905 14.31342978695475
RADIO ROSTO (RS15)      
1 23439U 94085A   26085.54644997 -.00000052  00000+0 -28028-3 0  9997
2 23439  64.8142  76.8673 0153309  18.8905 341.7623 11.27583780286584
JAS-2 (FO-29)           
1 24278U 96046B   26085.42929556 -.00000041  00000+0 -24675-5 0  9996
2 24278  98.5353 305.5826 0349141 311.3047  45.8517 13.53269861461979
TECHSAT 1B (GO-32)      
1 25397U 98043D   26085.87961043  .00000089  00000+0  58803-4 0  9993
2 25397  99.0046  76.5757 0002340  91.6264 268.5182 14.24410550439611
ISS (ZARYA)             
1 25544U 98067A   26085.80952178  .00012890  00000+0  24531-3 0  9998
2 25544  51.6341 347.7277 0006206 236.0994 123.9405 15.48566257558984
PCSAT (NO-44)           
1 26931U 01043C   26085.39156297  .00000152  00000+0  87613-4 0  9998
2 26931  67.0488  98.4150 0006920 264.8280  95.2032 14.31920047278593
SAUDISAT 1C (SO-50)     
1 27607U 02058C   26085.88276145  .00001536  00000+0  19837-3 0  9994
2 27607  64.5548  23.5956 0075426 277.5143  81.7398 14.82849340252254
CUTE-1 (CO-55)          
1 27844U 03031E   26085.00255829  .00000334  00000+0  16369-3 0  9991
2 27844  98.6775  94.5993 0010689  70.0800 290.1530 14.24279092179835
CUBESAT XI-IV (CO-57)   
1 27848U 03031J   26084.94949991  .00000276  00000+0  14051-3 0  9998
2 27848  98.6808  94.3265 0010653  86.4742 273.7655 14.23572124179536
MOZHAETS 4 (RS22)       
1 27939U 03042A   26085.84531964  .00001574  00000+0  25147-3 0  9998
2 27939  98.3460 267.8855 0011538 163.9873 307.9396 14.73301505203425
CUBESAT XI-V            
1 28895U 05043F   26085.36585631  .00001775  00000+0  28809-3 0  9991
2 28895  98.2867 239.3088 0015329 107.8512 252.4368 14.72385507 89561
CUTE-1.7+APD II (CO-65) 
1 32785U 08021C   26085.89374925  .00007239  00000+0  46670-3 0  9990
2 32785  97.8224  65.6793 0007852 317.7286  42.3336 15.08600368972782
